STARLINK-1400_new
1 15700C 20035AV  21326.16589048  .00038477  00000-0  25794-2 0  3263
2 15700  53.0540 237.9961 0002265  64.6353  87.8372 15.06338968    19
STARLINK-1400_old
1 25700C 20035AV  21325.09061298  .00005304  00000-0  35528-3 0  3255
2 25700  53.0543 242.8344 0002103  63.7293  14.1890 15.06398740    18
